#dP2021  7 16  0  0  0.00000000      96 __u+U ITR00 FIT  IAC
## 2166 432000.00000000   900.00000000 59411 0.0000000000000
+  125   C01C02C03C04C05C06C08C09C10C11C12C13C14C16C19C20C21
+        C22C23C24C25C26C27C28C29C30C32C33C34C35C36C37C38C39
+        C40C41C42C43C44C45C46C60E01E02E03E04E05E07E08E09E11
+        E12E13E14E15E18E19E21E24E25E26E27E30E31E33E36G01G02
+        G03G04G05G06G07G08G09G10G11G12G13G14G15G16G17G18G19
+        G21G22G23G24G25G26G27G28G29G30G31G32J01J02J03J07R01
+        R02R03R04R05R06R07R08R09R10R11R12R13R14R15R16R17R18
+        R19R20R21R22R23R24  0  0  0  0  0  0  0  0  0  0  0
++        13 13 13 13 13 10  9  9  9  9  9  9  9  9  8  8  8
++         8  8  8  8  8  8  8  8  8  8  8  8  8  8  8  9  9
++         8  8  8  8  8  8  8 13  5  4  4  4  5  4  4  5  4
++         4  4  5  4  5  4  5  5  5  5  4  4  5  5  5  4  4
++         4  4  4  4  4  4  4  4  4  4  4  3  4  4  4  4  4
++         4  4  4  3  4  4  4  4  4  4  4  4  8  8  8 15  7
++         6  6  6  6 13  6  6  6 13 10  6  8  6  6  7  6  6
++         8  8  6  8  0  6  0  0  0  0  0  0  0  0  0  0  0
%c M  cc GPS ccc cccc cccc cccc cccc ccccc ccccc ccccc ccccc
%c cc cc ccc ccc cccc cccc cccc cccc ccccc ccccc ccccc ccccc
%f  0.0000000  0.000000000  0.00000000000  0.000000000000000
%f  0.0000000  0.000000000  0.00000000000  0.000000000000000
%i    0    0    0    0      0      0      0      0         0
%i    0    0    0    0      0      0      0      0         0
/* INFORMATION & ANALYSIS CENTER (IAC)            RAPID DATA
/* S/V CLOCKS ARE ALIGNED TO GNSS TIME                      
/* G:C1WC2W R:C1PC2P E:C1XC5X C:C2IC6I J:C1CC2S             
/* PCV:IGS14_2163 OL/AL:FES2004  NONE     YN ORB:CoN CLK:CoN
*  2021 07 16 23 45  0.00000000
PC01 -34333.163409  24491.319821    183.546542   -267.357926
PC02   4459.359095  41868.488158   -806.410042    503.189395
PC03 -14657.414008  39504.647894   -574.368497   -472.293116
PC04 -39607.007762  14445.038064    426.741995   -143.280120
PC05  21923.658212  35977.184716  -1175.871999    -42.378035
PC06  -6519.034566  32583.568940 -25188.238556    633.701974
PC08 -21928.898582  35702.146564  -6106.628061   -905.470222
PC09   3800.388926  39471.813006 -13366.728404    368.646904
PC10  -2749.721936  26566.867761  32840.630984    -18.060576
PC11  16664.553115   8166.424847 -20801.438891    461.812336
PC12  12558.312516  23760.852892  -7535.732434    809.524434
PC13 -12139.459295  36501.000284 -17472.451008    339.212345
PC14  27432.131970   5265.878289    646.029003    800.569831
PC16  -4426.222287  33898.793541 -24413.067323   -914.210295
PC19 -26031.514331   1551.696873  -9878.818753    911.672486
PC20 -24977.201329 -10197.363856   7078.995784   -843.146055
PC21   8914.359565  16475.365937 -20676.288637   -935.848284
PC22 -11988.867010  12801.623021 -21695.895604   -948.380469
PC23  16529.888583 -22157.875843  -3813.222822   -968.964370
PC24  14598.765259   7859.367850  22445.501813   -942.702072
PC25  22004.902369 -11421.170690  12791.146653   -884.794904
PC26    -34.125889  20583.832337  18853.712787    877.784156
PC27  -7169.352421 -26934.293852  -1540.633031    565.523157
PC28   6046.896646 -21027.803593 -17318.078163    -49.769801
PC29 -15592.505360   3408.625003  22879.263039    420.468162
PC30 -16674.590802 -16896.592140  14675.071994    474.305229
PC32  -8951.623020 -16432.668077  20711.751917   -924.905646
PC33  26079.013106  -1666.987292   9827.773882   -943.869769
PC34  16842.178872  16186.078643 -15267.042234   -626.491571
PC35  -5622.598980  20960.906949  17515.896619   -183.909374
PC36 -22243.030129  10613.226565 -13056.685695   -733.523607
PC37   1352.651069 -20967.749602 -18333.492627   -864.668068
PC38 -19957.111926  36508.596267  -7272.641820    162.202552
PC39  -1663.511640  34451.826844 -24132.522747     32.439408
PC40  -8993.261300  21138.645369  35375.822306    181.216129
PC41  12326.449516 -12750.279477  21594.323117   -961.130633
PC42  24643.586189  10570.829804  -7722.863224   -920.324100
PC43  15900.204662  -2781.943464 -22774.111048   -824.593759
PC44   7965.960250  26674.195526   1685.974380    293.040358
PC45 -16398.101170  22235.345724   4004.093885    495.381769
PC46 -15306.690588  -6699.383576 -22342.212575    175.746231
PC60   7344.297736  41512.750670    959.559566     -0.200139
PE01  28362.622067  -6265.186251   5708.573159  -1151.606624
PE02 -28370.431743   6372.286175  -5564.625094    233.399253
PE03 -23410.847816  -3018.413076 -17847.801247   -453.434954
PE04  10111.979959 -13810.903798  24158.197934   -814.845884
PE05 -23187.771410 -18369.005249   -942.322015   -264.648976
PE07   9474.172493  22828.131772 -16288.986628   -562.515594
PE08  -9611.528538  14008.742116 -24235.053993   5969.217390
PE09  -9774.558129 -22722.621452  16250.824870   5598.055806
PE11   -136.936663 -28692.626571   7283.383553   5710.111783
PE12  11958.411521 -24244.383057 -12082.080462   5107.562367
PE13    -68.837748  28784.412874  -6899.296091    419.109151
PE14   6075.355060 -21112.671081 -21159.970038  -1502.718876
PE15 -11820.661221  24302.659919  12073.326863    803.110857
PE18   8308.866078  24138.802224   8823.390058  -1647.005521
PE19  24126.357131   5180.578686  16358.438190    328.624152
PE21  20094.949232   7317.930098  20470.337839   -676.638448
PE24   1194.724334 -17588.423335 -23781.156017  -1011.723397
PE25 -19924.762666  -7452.939952 -20571.198201   -540.224607
PE26  12176.211260  15522.334616 -22073.200840   1571.106777
PE27   -131.400514  17322.036720  24010.468029    -77.214109
PE30 -21019.923854  16667.985172  12516.579161   2778.350360
PE31  20138.575377 -17059.483065 -13391.750626   -483.335833
PE33  16584.369285  -5525.045920 -23890.801810   -467.593028
PE36 -11685.804303 -16319.845585  21752.338338   -235.402611
PG01 -13829.965129  20670.988856   8547.279239    626.103282
PG02  15034.728749   1048.619942 -21226.434445   -620.064513
PG03 -19912.066560  12255.156509 -12583.335199   -222.829214
PG04  -8873.894327  12950.265709 -21409.247811   -202.489560
PG05  25904.430742  -6215.398126    899.833766    -48.132910
PG06   9695.143854  13465.788188 -20666.202176     41.158637
PG07  -5214.946408  25251.969473   5515.070551    204.022518
PG08 -16431.784905   2895.217946  20720.806452    -29.061864
PG09   2083.451344  20533.894528 -16766.647355   -355.727926
PG10 -10783.554287 -12623.124065  20908.599813   -163.453909
PG11  15228.508837   2880.535369 -21585.201699     17.257945
PG12  21014.429665 -10647.016554 -12384.119658    -69.612644
PG13  18570.689947   6334.850295  17833.121224    158.632576
PG14  10525.545621  13199.335888  20510.148753     45.689585
PG15  16344.693792  -5139.755980  19999.997607   -135.038848
PG16 -26408.293562  -1005.186228  -4741.807449   -358.257011
PG17  12319.745095  22942.642101   5632.740662    474.873327
PG18   3979.267107 -25032.713157   7786.949040    340.459887
PG19  17037.368260  20064.234755  -4361.435971     27.234100
PG21 -15887.785508  14125.158063  16291.993422    131.682263
PG22 -24088.881653  10017.375808  -4193.076136   -561.842019
PG23   2331.306441 -15569.754815  21360.124327     83.636781
PG24  14840.377927 -17451.241602  12844.984685    176.752609
PG25  10208.290162 -15461.440457 -19192.144220    174.733564
PG26 -21580.693927  -6012.498082 -14530.144674    111.420312
PG27 -20248.062015  -8019.056104  15273.136623   -163.969982
PG28  15937.965324  11322.277228  18439.084211    536.630027
PG29    555.463727 -19609.829417 -17925.914365   -381.308858
PG30   4084.935848  21044.664827  15596.366172   -451.586561
PG31 -11437.960050 -11525.546713 -21020.905090   -129.030772
PG32 -15709.947606 -21377.209175   2703.515982     13.677310
PJ01 -27572.968827  15203.089730 -23428.160004   -417.240871
PJ02 -31135.272607  27394.928935  12350.648854     -0.836145
PJ03 -24883.698486  26422.021020  26592.902922     -0.212067
PJ07 -25385.564777  33665.116931    -53.650005      0.036202
PR01 -23556.774489  -9716.045955    966.849160     82.406052
PR02 -18258.083288   1357.462748 -17747.321672    486.315088
PR03  -2179.685635  10886.043391 -22918.455214     39.626764
PR04  14960.353802  13978.919241 -15181.410423     96.077368
PR05  23657.587409   9453.816849   1040.308575     75.456735
PR06  17502.956948  -2675.077805  18344.233923    201.583515
PR07   1411.529342 -11202.698815  22914.102035    -42.012235
PR08 -14968.748848 -14065.461643  15194.329499    -59.986844
PR09  20989.034369 -13985.797948   4089.756636      3.270792
PR10  13413.942499 -17950.632869 -12125.634336    -72.978549
PR11  -2325.894662 -11721.861603 -22522.682288     44.432798
PR12 -16934.454619   1652.131428 -18978.824434    245.888420
PR13 -21006.799386  13625.471362  -4867.254506    -57.811808
PR14 -12676.420767  17836.814625  13108.101028     66.553882
PR15   2795.294353  11499.988431  22620.565621    102.644183
PR16  17488.412038  -2724.834519  18295.943331    -18.012367
PR17  -1906.780390  23177.034461  10532.126586    441.675824
PR18   5736.518411  24010.718621  -6319.735740     83.667107
PR19   9910.350768  13295.326836 -19393.321671   -151.788298
PR20   9154.885052  -8397.247892 -22285.324115    -52.599573
PR21   1382.863322 -23657.743198  -9405.244278   -224.415536
PR22  -5988.252414 -23743.635721   7287.461929   -123.022021
PR23 -10731.662273  -6160.051907  22290.089352 999999.999999
PR24  -9279.283716   9329.201361  21864.843654     50.737721
EOF
